[{"OBJECT_NAME":"ONEWEB-0366","OBJECT_ID":"2021-090P","EPOCH":"2026-03-14T14:14:06.002592","MEAN_MOTION":13.14502781,"ECCENTRICITY":0.00016486,"INCLINATION":87.897,"RA_OF_ASC_NODE":308.5898,"ARG_OF_PERICENTER":80.8722,"MEAN_ANOMALY":279.2594,"EPHEMERIS_TYPE":0,"CLASSIFICATION_TYPE":"U","NORAD_CAT_ID":49292,"ELEMENT_SET_NO":999,"REV_AT_EPOCH":21513,"BSTAR":-0.00063355133,"MEAN_MOTION_DOT":-2.22e-6,"MEAN_MOTION_DDOT":0},{"OBJECT_NAME":"ONEWEB-0367","OBJECT_ID":"2021-090Q","EPOCH":"2026-03-14T14:50:44.410848","MEAN_MOTION":13.2077042,"ECCENTRICITY":0.00018802,"INCLINATION":87.9165,"RA_OF_ASC_NODE":293.3221,"ARG_OF_PERICENTER":87.2096,"MEAN_ANOMALY":272.9252,"EPHEMERIS_TYPE":0,"CLASSIFICATION_TYPE":"U","NORAD_CAT_ID":49293,"ELEMENT_SET_NO":999,"REV_AT_EPOCH":21734,"BSTAR":7.3057385e-5,"MEAN_MOTION_DOT":4.3e-7,"MEAN_MOTION_DDOT":0},{"OBJECT_NAME":"ONEWEB-0368","OBJECT_ID":"2021-090R","EPOCH":"2026-03-14T14:12:06.235776","MEAN_MOTION":13.20770137,"ECCENTRICITY":0.00013326,"INCLINATION":87.9155,"RA_OF_ASC_NODE":293.3486,"ARG_OF_PERICENTER":113.9271,"MEAN_ANOMALY":246.2002,"EPHEMERIS_TYPE":0,"CLASSIFICATION_TYPE":"U","NORAD_CAT_ID":49294,"ELEMENT_SET_NO":999,"REV_AT_EPOCH":21849,"BSTAR":-5.7333634e-5,"MEAN_MOTION_DOT":-1.0e-7,"MEAN_MOTION_DDOT":0},{"OBJECT_NAME":"ONEWEB-0369","OBJECT_ID":"2021-090S","EPOCH":"2026-03-14T15:19:20.162784","MEAN_MOTION":13.19724801,"ECCENTRICITY":0.00016552,"INCLINATION":87.9223,"RA_OF_ASC_NODE":323.8179,"ARG_OF_PERICENTER":83.3526,"MEAN_ANOMALY":276.7795,"EPHEMERIS_TYPE":0,"CLASSIFICATION_TYPE":"U","NORAD_CAT_ID":49295,"ELEMENT_SET_NO":999,"REV_AT_EPOCH":21394,"BSTAR":0.00028810602,"MEAN_MOTION_DOT":1.28e-6,"MEAN_MOTION_DDOT":0},{"OBJECT_NAME":"ONEWEB-0370","OBJECT_ID":"2021-090T","EPOCH":"2026-03-14T15:04:23.611584","MEAN_MOTION":13.20770582,"ECCENTRICITY":0.00018986,"INCLINATION":87.9165,"RA_OF_ASC_NODE":293.3214,"ARG_OF_PERICENTER":80.3621,"MEAN_ANOMALY":279.7727,"EPHEMERIS_TYPE":0,"CLASSIFICATION_TYPE":"U","NORAD_CAT_ID":49296,"ELEMENT_SET_NO":999,"REV_AT_EPOCH":21738,"BSTAR":0.00013420697,"MEAN_MOTION_DOT":6.8e-7,"MEAN_MOTION_DDOT":0},{"OBJECT_NAME":"ONEWEB-0371","OBJECT_ID":"2021-090U","EPOCH":"2026-03-14T15:30:42.627744","MEAN_MOTION":13.19724458,"ECCENTRICITY":0.00018179,"INCLINATION":87.9224,"RA_OF_ASC_NODE":323.8052,"ARG_OF_PERICENTER":81.206,"MEAN_ANOMALY":278.9279,"EPHEMERIS_TYPE":0,"CLASSIFICATION_TYPE":"U","NORAD_CAT_ID":49297,"ELEMENT_SET_NO":999,"REV_AT_EPOCH":21398,"BSTAR":0.00012883747,"MEAN_MOTION_DOT":6.5e-7,"MEAN_MOTION_DDOT":0},{"OBJECT_NAME":"ONEWEB-0372","OBJECT_ID":"2021-090V","EPOCH":"2026-03-14T14:48:17.441856","MEAN_MOTION":13.20770919,"ECCENTRICITY":0.00016888,"INCLINATION":87.9165,"RA_OF_ASC_NODE":293.3241,"ARG_OF_PERICENTER":89.5922,"MEAN_ANOMALY":270.5405,"EPHEMERIS_TYPE":0,"CLASSIFICATION_TYPE":"U","NORAD_CAT_ID":49298,"ELEMENT_SET_NO":999,"REV_AT_EPOCH":21735,"BSTAR":0.00011292933,"MEAN_MOTION_DOT":5.9e-7,"MEAN_MOTION_DDOT":0},{"OBJECT_NAME":"ONEWEB-0373","OBJECT_ID":"2021-090W","EPOCH":"2026-03-14T13:38:01.241952","MEAN_MOTION":13.20770853,"ECCENTRICITY":0.00016157,"INCLINATION":87.9157,"RA_OF_ASC_NODE":293.3385,"ARG_OF_PERICENTER":82.6415,"MEAN_ANOMALY":277.4901,"EPHEMERIS_TYPE":0,"CLASSIFICATION_TYPE":"U","NORAD_CAT_ID":49299,"ELEMENT_SET_NO":999,"REV_AT_EPOCH":21853,"BSTAR":1.21853e-5,"MEAN_MOTION_DOT":1.8e-7,"MEAN_MOTION_DDOT":0},{"OBJECT_NAME":"ONEWEB-0374","OBJECT_ID":"2021-090X","EPOCH":"2026-03-14T13:55:50.035872","MEAN_MOTION":13.14502616,"ECCENTRICITY":0.00010949,"INCLINATION":87.8978,"RA_OF_ASC_NODE":308.5769,"ARG_OF_PERICENTER":81.8858,"MEAN_ANOMALY":278.2396,"EPHEMERIS_TYPE":0,"CLASSIFICATION_TYPE":"U","NORAD_CAT_ID":49300,"ELEMENT_SET_NO":999,"REV_AT_EPOCH":21513,"BSTAR":-1.0694654e-5,"MEAN_MOTION_DOT":9.0e-8,"MEAN_MOTION_DDOT":0},{"OBJECT_NAME":"ONEWEB-0375","OBJECT_ID":"2021-090Y","EPOCH":"2026-03-14T13:19:51.143520","MEAN_MOTION":13.20770663,"ECCENTRICITY":0.00012433,"INCLINATION":87.9169,"RA_OF_ASC_NODE":293.3289,"ARG_OF_PERICENTER":71.5355,"MEAN_ANOMALY":288.5913,"EPHEMERIS_TYPE":0,"CLASSIFICATION_TYPE":"U","NORAD_CAT_ID":49301,"ELEMENT_SET_NO":999,"REV_AT_EPOCH":21803,"BSTAR":7.740395e-5,"MEAN_MOTION_DOT":4.4e-7,"MEAN_MOTION_DDOT":0},{"OBJECT_NAME":"ONEWEB-0376","OBJECT_ID":"2021-090Z","EPOCH":"2026-03-14T15:28:25.382208","MEAN_MOTION":13.1972416,"ECCENTRICITY":0.00018079,"INCLINATION":87.9236,"RA_OF_ASC_NODE":323.7988,"ARG_OF_PERICENTER":89.6649,"MEAN_ANOMALY":270.469,"EPHEMERIS_TYPE":0,"CLASSIFICATION_TYPE":"U","NORAD_CAT_ID":49302,"ELEMENT_SET_NO":999,"REV_AT_EPOCH":21398,"BSTAR":-3.1405379e-5,"MEAN_MOTION_DOT":0,"MEAN_MOTION_DDOT":0},{"OBJECT_NAME":"ONEWEB-0377","OBJECT_ID":"2021-090AA","EPOCH":"2026-03-14T14:48:40.558176","MEAN_MOTION":13.20770518,"ECCENTRICITY":0.00017083,"INCLINATION":87.916,"RA_OF_ASC_NODE":293.3185,"ARG_OF_PERICENTER":79.2981,"MEAN_ANOMALY":280.8344,"EPHEMERIS_TYPE":0,"CLASSIFICATION_TYPE":"U","NORAD_CAT_ID":49303,"ELEMENT_SET_NO":999,"REV_AT_EPOCH":21803,"BSTAR":0.00012666812,"MEAN_MOTION_DOT":6.4e-7,"MEAN_MOTION_DDOT":0},{"OBJECT_NAME":"ONEWEB-0378","OBJECT_ID":"2021-090AB","EPOCH":"2026-03-14T13:31:23.612736","MEAN_MOTION":13.20770394,"ECCENTRICITY":0.00015171,"INCLINATION":87.9158,"RA_OF_ASC_NODE":293.3395,"ARG_OF_PERICENTER":84.8932,"MEAN_ANOMALY":275.2374,"EPHEMERIS_TYPE":0,"CLASSIFICATION_TYPE":"U","NORAD_CAT_ID":49304,"ELEMENT_SET_NO":999,"REV_AT_EPOCH":21729,"BSTAR":0.00010778982,"MEAN_MOTION_DOT":5.7e-7,"MEAN_MOTION_DDOT":0},{"OBJECT_NAME":"ONEWEB-0379","OBJECT_ID":"2021-090AC","EPOCH":"2026-03-14T04:40:55.688736","MEAN_MOTION":13.14503412,"ECCENTRICITY":0.00015211,"INCLINATION":87.8982,"RA_OF_ASC_NODE":308.6635,"ARG_OF_PERICENTER":83.349,"MEAN_ANOMALY":276.7813,"EPHEMERIS_TYPE":0,"CLASSIFICATION_TYPE":"U","NORAD_CAT_ID":49305,"ELEMENT_SET_NO":999,"REV_AT_EPOCH":21508,"BSTAR":0.00010386604,"MEAN_MOTION_DOT":5.1e-7,"MEAN_MOTION_DDOT":0},{"OBJECT_NAME":"ONEWEB-0380","OBJECT_ID":"2021-090AD","EPOCH":"2026-03-14T15:23:52.592352","MEAN_MOTION":13.19723955,"ECCENTRICITY":0.00016323,"INCLINATION":87.9225,"RA_OF_ASC_NODE":323.8145,"ARG_OF_PERICENTER":72.3056,"MEAN_ANOMALY":287.8255,"EPHEMERIS_TYPE":0,"CLASSIFICATION_TYPE":"U","NORAD_CAT_ID":49306,"ELEMENT_SET_NO":999,"REV_AT_EPOCH":21395,"BSTAR":5.3386839e-5,"MEAN_MOTION_DOT":3.4e-7,"MEAN_MOTION_DDOT":0},{"OBJECT_NAME":"ONEWEB-0381","OBJECT_ID":"2021-090AE","EPOCH":"2026-03-14T14:43:55.719840","MEAN_MOTION":13.20770087,"ECCENTRICITY":0.00014051,"INCLINATION":87.9165,"RA_OF_ASC_NODE":293.3233,"ARG_OF_PERICENTER":81.0725,"MEAN_ANOMALY":279.0567,"EPHEMERIS_TYPE":0,"CLASSIFICATION_TYPE":"U","NORAD_CAT_ID":49307,"ELEMENT_SET_NO":999,"REV_AT_EPOCH":21734,"BSTAR":0.00012589968,"MEAN_MOTION_DOT":6.4e-7,"MEAN_MOTION_DDOT":0},{"OBJECT_NAME":"ONEWEB-0382","OBJECT_ID":"2021-090AF","EPOCH":"2026-03-14T14:25:44.380704","MEAN_MOTION":13.20770062,"ECCENTRICITY":0.00013349,"INCLINATION":87.9165,"RA_OF_ASC_NODE":293.3221,"ARG_OF_PERICENTER":85.775,"MEAN_ANOMALY":274.3536,"EPHEMERIS_TYPE":0,"CLASSIFICATION_TYPE":"U","NORAD_CAT_ID":49308,"ELEMENT_SET_NO":999,"REV_AT_EPOCH":21733,"BSTAR":-3.7476766e-5,"MEAN_MOTION_DOT":-2.0e-8,"MEAN_MOTION_DDOT":0}]
