ONEWEB-0366             
1 49292U 21090P   26073.59312503 -.00000222  00000+0 -63355-3 0  9996
2 49292  87.8970 308.5898 0001648  80.8722 279.2594 13.14502781215136
ONEWEB-0367             
1 49293U 21090Q   26073.61856957  .00000043  00000+0  73057-4 0  9996
2 49293  87.9165 293.3221 0001880  87.2096 272.9252 13.20770420217348
ONEWEB-0368             
1 49294U 21090R   26073.59173884 -.00000010  00000+0 -57334-4 0  9991
2 49294  87.9155 293.3486 0001332 113.9271 246.2002 13.20770137218494
ONEWEB-0369             
1 49295U 21090S   26073.63842781  .00000128  00000+0  28811-3 0  9991
2 49295  87.9223 323.8179 0001655  83.3526 276.7795 13.19724801213947
ONEWEB-0370             
1 49296U 21090T   26073.62805106  .00000068  00000+0  13421-3 0  9995
2 49296  87.9165 293.3214 0001898  80.3621 279.7727 13.20770582217385
ONEWEB-0371             
1 49297U 21090U   26073.64632671  .00000065  00000+0  12884-3 0  9992
2 49297  87.9224 323.8052 0001817  81.2060 278.9279 13.19724458213983
ONEWEB-0372             
1 49298U 21090V   26073.61686854  .00000059  00000+0  11293-3 0  9998
2 49298  87.9165 293.3241 0001688  89.5922 270.5405 13.20770919217352
ONEWEB-0373             
1 49299U 21090W   26073.56806993  .00000018  00000+0  12185-4 0  9998
2 49299  87.9157 293.3385 0001615  82.6415 277.4901 13.20770853218539
ONEWEB-0374             
1 49300U 21090X   26073.58044023  .00000009  00000+0 -10695-4 0  9996
2 49300  87.8978 308.5769 0001094  81.8858 278.2396 13.14502616215133
ONEWEB-0375             
1 49301U 21090Y   26073.55545305  .00000044  00000+0  77404-4 0  9992
2 49301  87.9169 293.3289 0001243  71.5355 288.5913 13.20770663218036
ONEWEB-0376             
1 49302U 21090Z   26073.64473822  .00000000  00000+0 -31405-4 0  9991
2 49302  87.9236 323.7988 0001807  89.6649 270.4690 13.19724160213988
ONEWEB-0377             
1 49303U 21090AA  26073.61713609  .00000064  00000+0  12667-3 0  9996
2 49303  87.9160 293.3185 0001708  79.2981 280.8344 13.20770518218032
ONEWEB-0378             
1 49304U 21090AB  26073.56346774  .00000057  00000+0  10779-3 0  9990
2 49304  87.9158 293.3395 0001517  84.8932 275.2374 13.20770394217299
ONEWEB-0379             
1 49305U 21090AC  26073.19508899  .00000051  00000+0  10387-3 0  9997
2 49305  87.8982 308.6635 0001521  83.3490 276.7813 13.14503412215086
ONEWEB-0380             
1 49306U 21090AD  26073.64158093  .00000034  00000+0  53387-4 0  9994
2 49306  87.9225 323.8145 0001632  72.3056 287.8255 13.19723955213950
ONEWEB-0381             
1 49307U 21090AE  26073.61383935  .00000064  00000+0  12590-3 0  9990
2 49307  87.9165 293.3233 0001405  81.0725 279.0567 13.20770087217347
ONEWEB-0382             
1 49308U 21090AF  26073.60120811 -.00000002  00000+0 -37477-4 0  9998
2 49308  87.9165 293.3221 0001334  85.7750 274.3536 13.20770062217331
